0 IUS DEB
1 26076U 99040E   13286.43558309  .00005547  00000-0  75286-3 0  3176
2 26076 028.4845 080.9041 4689495 199.8636 133.4485 06.15404516227969
0 IUS DEB
1 26076U 99040E   13287.00593301  .00005775  00000-0  78187-3 0  3188
2 26076 028.4785 080.1550 4689394 201.0796 317.0360 06.15419482227993
0 IUS DEB
1 26076U 99040E   13293.19716406  .00006223  00000-0  84693-3 0  3197
2 26076 028.4863 071.8771 4689453 214.5675 354.5834 06.15501740228377
